[
  {
    "name": "ONEWEB-0193",
    "noradId": "48238",
    "line1": "1 48238U 21031AE  26204.22552326  .00000040  00000+0  72807-4 0  9994",
    "line2": "2 48238  87.8962 282.5185 0001908 109.7319 250.4017 13.14502476253042"
  },
  {
    "name": "ONEWEB-0191",
    "noradId": "48239",
    "line1": "1 48239U 21031AF  26204.16047861 -.00000176  00000+0 -50934-3 0  9999",
    "line2": "2 48239  87.8967 282.5329 0001918  94.9454 265.1895 13.14500600252890"
  },
  {
    "name": "ONEWEB-0195",
    "noradId": "48240",
    "line1": "1 48240U 21031AG  26204.13752028  .00000234  00000+0  59703-3 0  9992",
    "line2": "2 48240  87.8967 282.5375 0002433  97.9126 262.2280 13.14505111252871"
  },
  {
    "name": "ONEWEB-0201",
    "noradId": "48241",
    "line1": "1 48241U 21031AH  26204.20186615  .00000237  00000+0  60506-3 0  9990",
    "line2": "2 48241  87.8961 282.5385 0001937  90.6276 269.5076 13.14503085253110"
  },
  {
    "name": "ONEWEB-0207",
    "noradId": "48242",
    "line1": "1 48242U 21031AJ  26204.18190378 -.00000135  00000+0 -39852-3 0  9998",
    "line2": "2 48242  87.8962 282.5294 0001941  91.1801 268.9552 13.14501642253025"
  },
  {
    "name": "ONEWEB-0208",
    "noradId": "48243",
    "line1": "1 48243U 21031AK  26204.16367061 -.00000106  00000+0 -32076-3 0  9991",
    "line2": "2 48243  87.8963 282.5382 0002382  98.5561 261.5838 13.14502934253031"
  },
  {
    "name": "ONEWEB-0200",
    "noradId": "48244",
    "line1": "1 48244U 21031AL  26204.20332659  .00000256  00000+0  65553-3 0  9992",
    "line2": "2 48244  87.8975 282.5199 0002092  97.1696 262.9671 13.14502424252968"
  },
  {
    "name": "ONEWEB-0217",
    "noradId": "48245",
    "line1": "1 48245U 21031AM  26204.14305711  .00000166  00000+0  41330-3 0  9992",
    "line2": "2 48245  87.8971 282.5361 0002389  98.1129 262.0271 13.14503157252902"
  },
  {
    "name": "ONEWEB-0211",
    "noradId": "48767",
    "line1": "1 48767U 21045A   26204.14834417 -.00000013  00000+0 -68157-4 0  9996",
    "line2": "2 48767  87.8981 251.9089 0002755  99.3190 260.8253 13.16197688249178"
  },
  {
    "name": "ONEWEB-0223",
    "noradId": "48768",
    "line1": "1 48768U 21045B   26204.16838743 -.00000084  00000+0 -25850-3 0  9995",
    "line2": "2 48768  87.8982 252.0230 0002408 102.8203 257.3196 13.15548744249135"
  },
  {
    "name": "ONEWEB-0230",
    "noradId": "48769",
    "line1": "1 48769U 21045C   26204.13986802  .00000056  00000+0  11356-3 0  9996",
    "line2": "2 48769  87.8979 252.0390 0001870  95.4574 264.6769 13.15548770249393"
  },
  {
    "name": "ONEWEB-0237",
    "noradId": "48770",
    "line1": "1 48770U 21045D   26204.20482736  .00000444  00000+0  11458-2 0  9996",
    "line2": "2 48770  87.8976 252.0279 0002384  91.0325 269.1078 13.15551819249127"
  },
  {
    "name": "ONEWEB-0235",
    "noradId": "48771",
    "line1": "1 48771U 21045E   26204.17945709 -.00000115  00000+0 -34077-3 0  9997",
    "line2": "2 48771  87.8983 252.0221 0002367 105.2113 254.9279 13.15547792249116"
  },
  {
    "name": "ONEWEB-0242",
    "noradId": "48772",
    "line1": "1 48772U 21045F   26204.17314039 -.00000080  00000+0 -24598-3 0  9992",
    "line2": "2 48772  87.8987 252.0210 0002020 102.6196 257.5161 13.15548585249151"
  },
  {
    "name": "ONEWEB-0241",
    "noradId": "48773",
    "line1": "1 48773U 21045G   26204.16049433 -.00000058  00000+0 -18755-3 0  9998",
    "line2": "2 48773  87.8974 252.0375 0002393 101.1728 258.9671 13.15551711249064"
  },
  {
    "name": "ONEWEB-0243",
    "noradId": "48774",
    "line1": "1 48774U 21045H   26204.11607785  .00006091  00000+0  16141-1 0  9990",
    "line2": "2 48774  87.8980 252.0598 0002285 114.7431 245.3937 13.15517808249086"
  },
  {
    "name": "ONEWEB-0222",
    "noradId": "48775",
    "line1": "1 48775U 21045J   26204.17551941 -.00000022  00000+0 -93831-4 0  9993",
    "line2": "2 48775  87.8981 252.0175 0002266  99.1115 261.0272 13.15547254249134"
  },
  {
    "name": "ONEWEB-0244",
    "noradId": "48776",
    "line1": "1 48776U 21045K   26204.20166688  .00000130  00000+0  31194-3 0  9999",
    "line2": "2 48776  87.8985 252.0084 0002135 101.8319 258.3051 13.15547696249707"
  },
  {
    "name": "ONEWEB-0247",
    "noradId": "48777",
    "line1": "1 48777U 21045L   26204.19848252  .00000130  00000+0  31099-3 0  9996",
    "line2": "2 48777  87.8975 252.0369 0002330 117.2669 242.8699 13.15546328249144"
  },
  {
    "name": "ONEWEB-0245",
    "noradId": "48778",
    "line1": "1 48778U 21045M   26204.11766589  .00000145  00000+0  35005-3 0  9998",
    "line2": "2 48778  87.8982 252.0355 0002219  97.0461 263.0922 13.15549333249108"
  },
  {
    "name": "ONEWEB-0229",
    "noradId": "48779",
    "line1": "1 48779U 21045N   26204.18898924  .00000154  00000+0  37436-3 0  9995",
    "line2": "2 48779  87.8981 252.0189 0002013 100.3791 259.7566 13.15547765249146"
  },
  {
    "name": "ONEWEB-0228",
    "noradId": "48780",
    "line1": "1 48780U 21045P   26204.14633095  .00000096  00000+0  22188-3 0  9992",
    "line2": "2 48780  87.8990 252.0221 0002135  98.5999 261.5374 13.15549649249059"
  },
  {
    "name": "ONEWEB-0232",
    "noradId": "48781",
    "line1": "1 48781U 21045Q   26204.12086037  .00000179  00000+0  44027-3 0  9997",
    "line2": "2 48781  87.8990 252.0276 0002135  96.2642 263.8732 13.15547357249372"
  },
  {
    "name": "ONEWEB-0231",
    "noradId": "48782",
    "line1": "1 48782U 21045R   26204.17472887  .00000063  00000+0  13430-3 0  9991",
    "line2": "2 48782  87.8977 252.0274 0002276 100.8441 259.2945 13.15547940249071"
  },
  {
    "name": "ONEWEB-0234",
    "noradId": "48783",
    "line1": "1 48783U 21045S   26204.13656528  .00000134  00000+0  32244-3 0  9997",
    "line2": "2 48783  87.8993 252.0181 0002551  79.8146 280.3272 13.15547909249208"
  },
  {
    "name": "ONEWEB-0238",
    "noradId": "48784",
    "line1": "1 48784U 21045T   26204.13681776  .00000099  00000+0  22939-3 0  9991",
    "line2": "2 48784  87.8993 252.0142 0002254  85.9844 274.1544 13.15548974249104"
  },
  {
    "name": "ONEWEB-0240",
    "noradId": "48785",
    "line1": "1 48785U 21045U   26204.15807443 -.00000133  00000+0 -38868-3 0  9994",
    "line2": "2 48785  87.8985 252.0190 0002394  98.2383 261.9019 13.15549730249134"
  },
  {
    "name": "ONEWEB-0246",
    "noradId": "48786",
    "line1": "1 48786U 21045V   26204.15254242  .00000023  00000+0  26756-4 0  9998",
    "line2": "2 48786  87.8988 252.0244 0002032  99.6125 260.5235 13.15548745249002"
  },
  {
    "name": "ONEWEB-0210",
    "noradId": "48787",
    "line1": "1 48787U 21045W   26204.20324887  .00000163  00000+0  39761-3 0  9992",
    "line2": "2 48787  87.8985 252.0111 0002119 121.9043 238.2294 13.15548377249050"
  },
  {
    "name": "ONEWEB-0214",
    "noradId": "48788",
    "line1": "1 48788U 21045X   26204.13590266  .00000072  00000+0  15761-3 0  9994",
    "line2": "2 48788  87.8990 252.0219 0001738 103.2786 256.8539 13.15547264249017"
  },
  {
    "name": "ONEWEB-0221",
    "noradId": "48789",
    "line1": "1 48789U 21045Y   26204.14303848  .00000096  00000+0  22096-3 0  9999",
    "line2": "2 48789  87.8986 252.0283 0002137 100.0621 260.0750 13.15548343249102"
  },
  {
    "name": "ONEWEB-0213",
    "noradId": "48790",
    "line1": "1 48790U 21045Z   26204.20800057  .00000070  00000+0  15282-3 0  9993",
    "line2": "2 48790  87.8988 252.0189 0002155 104.9982 255.1387 13.15548711249171"
  },
  {
    "name": "ONEWEB-0212",
    "noradId": "48791",
    "line1": "1 48791U 21045AA  26204.18502250  .00000003  00000+0 -26398-4 0  9993",
    "line2": "2 48791  87.8982 252.0174 0002024  95.5550 264.5812 13.15547111249160"
  },
  {
    "name": "ONEWEB-0227",
    "noradId": "48792",
    "line1": "1 48792U 21045AB  26204.18421395  .00000365  00000+0  93519-3 0  9992",
    "line2": "2 48792  87.8977 252.0176 0002161  98.5477 261.5898 13.15560309249110"
  },
  {
    "name": "ONEWEB-0226",
    "noradId": "48793",
    "line1": "1 48793U 21045AC  26204.17789637  .00000003  00000+0 -24942-4 0  9993",
    "line2": "2 48793  87.8981 252.0236 0002066 103.8288 256.3073 13.15547469249082"
  },
  {
    "name": "ONEWEB-0224",
    "noradId": "48794",
    "line1": "1 48794U 21045AD  26204.14145189  .00000031  00000+0  48906-4 0  9995",
    "line2": "2 48794  87.8978 252.0628 0002910  90.0818 270.0646 13.15549116249000"
  },
  {
    "name": "ONEWEB-0233",
    "noradId": "48795",
    "line1": "1 48795U 21045AE  26204.14605097 -.00000191  00000+0 -54088-3 0  9991",
    "line2": "2 48795  87.8976 252.0690 0002280 100.5974 259.5414 13.15548405249025"
  },
  {
    "name": "ONEWEB-0190",
    "noradId": "48796",
    "line1": "1 48796U 21045AF  26204.13352570  .00000075  00000+0  16526-3 0  9990",
    "line2": "2 48796  87.8984 252.0357 0002435 111.0741 249.0650 13.15549134249099"
  },
  {
    "name": "ONEWEB-0236",
    "noradId": "48797",
    "line1": "1 48797U 21045AG  26204.15095916 -.00000140  00000+0 -40491-3 0  9994",
    "line2": "2 48797  87.8973 252.0392 0002074  92.3070 267.8297 13.15548619248981"
  },
  {
    "name": "ONEWEB-0248",
    "noradId": "48798",
    "line1": "1 48798U 21045AH  26204.16362437 -.00000086  00000+0 -26285-3 0  9995",
    "line2": "2 48798  87.8983 252.0240 0002522 101.7323 258.4091 13.15549414249140"
  },
  {
    "name": "ONEWEB-0225",
    "noradId": "48799",
    "line1": "1 48799U 21045AJ  26204.18582343  .00000031  00000+0  48396-4 0  9994",
    "line2": "2 48799  87.8978 252.0262 0002386 108.9881 251.1508 13.15547775249157"
  },
  {
    "name": "ONEWEB-0215",
    "noradId": "48800",
    "line1": "1 48800U 21045AK  26204.15569904 -.00000111  00000+0 -32836-3 0  9994",
    "line2": "2 48800  87.8987 252.0168 0002579 108.0571 252.0840 13.15549660249026"
  },
  {
    "name": "ONEWEB-0216",
    "noradId": "48801",
    "line1": "1 48801U 21045AL  26204.16522072 -.00000083  00000+0 -25358-3 0  9990",
    "line2": "2 48801  87.8980 252.0283 0001991  96.7021 263.4336 13.15548463249035"
  }
]